H1 CPF 01  gfz 2021 10 16 12  7892 terrasarx 
H2 0702601  6201 31698    2021 10 16 12 59 42 2021 10 21 00 00 42   120 1 1  0 0 0
H9
10 0 59507  82062.000000  0    -705405.453   -698423.710   6805894.795
10 0 59507  82182.000000  0    -992347.542    176089.680   6803664.725
10 0 59507  82302.000000  0   -1246658.147   1052267.414   6681899.421
10 0 59507  82422.000000  0   -1464008.727   1914212.877   6442723.660
10 0 59507  82542.000000  0   -1640988.553   2746202.925   6090313.909
10 0 59507  82662.000000  0   -1775158.630   3532975.244   5630829.677
10 0 59507  82782.000000  0   -1865084.193   4260010.289   5072311.667
10 0 59507  82902.000000  0   -1910346.163   4913804.486   4424548.082
10 0 59507  83022.000000  0   -1911530.637   5482128.568   3698907.806
10 0 59507  83142.000000  0   -1870196.532   5954265.210   2908143.687
10 0 59507  83262.000000  0   -1788822.646   6321219.933   2066168.307
10 0 59507  83382.000000  0   -1670734.051   6575901.492   1187806.358
10 0 59507  83502.000000  0   -1520009.061   6713265.789    288527.992
10 0 59507  83622.000000  0   -1341370.290   6730419.976   -615830.680
10 0 59507  83742.000000  0   -1140062.114   6626685.108  -1509356.165
10 0 59507  83862.000000  0    -921716.487   6403610.494  -2376349.065
10 0 59507  83982.000000  0    -692213.017   6064941.194  -3201606.210
10 0 59507  84102.000000  0    -457536.315   5616544.422  -3970689.214
10 0 59507  84222.000000  0    -223633.779   5066296.631  -4670177.010
10 0 59507  84342.000000  0       3722.688   4423932.920  -5287896.434
10 0 59507  84462.000000  0     219068.298   3700864.071  -5813127.470
10 0 59507  84582.000000  0     417367.092   2909964.264  -6236780.274
10 0 59507  84702.000000  0     594120.664   2065335.341  -6551540.952
10 0 59507  84822.000000  0     745462.858   1182053.977  -6751986.323
10 0 59507  84942.000000  0     868238.750    275904.448  -6834668.144
10 0 59507  85062.000000  0     960066.592   -636898.949  -6798166.068
10 0 59507  85182.000000  0    1019381.893  -1539996.097  -6643108.173
10 0 59507  85302.000000  0    1045463.329  -2417165.817  -6372160.080
10 0 59507  85422.000000  0    1038440.934  -3252609.660  -5989985.915
10 0 59507  85542.000000  0     999285.042  -4031234.281  -5503177.968
10 0 59507  85662.000000  0     929776.492  -4738924.123  -4920152.267
10 0 59507  85782.000000  0     832459.456  -5362799.967  -4251014.677
10 0 59507  85902.000000  0     710576.097  -5891461.017  -3507396.620
10 0 59507  86022.000000  0     567984.651  -6315203.366  -2702260.822
10 0 59507  86142.000000  0     409062.821  -6626210.227  -1849680.974
10 0 59507  86262.000000  0     238598.162  -6818709.559   -964596.857
10 0 59507  86382.000000  0      61667.650  -6889092.431    -62549.384
99
